CCSDS_OMM_VERS = 2.0
CREATION_DATE  = 
ORIGINATOR     = 

OBJECT_NAME    = SZ-21 MODULE
OBJECT_ID      = 2025-246C
CENTER_NAME    = EARTH
REF_FRAME      = TEME
TIME_SYSTEM    = UTC
MEAN_ELEMENT_THEORY = SGP/SGP4

EPOCH          = 2025-11-23T22:21:11.047104
MEAN_MOTION    = 15.61215711
ECCENTRICITY   = .00046628
INCLINATION    = 41.4753
RA_OF_ASC_NODE = 130.6686
ARG_OF_PERICENTER = 134.1309
MEAN_ANOMALY   = 225.9915

EPHEMERIS_TYPE = 0
CLASSIFICATION_TYPE = U
NORAD_CAT_ID   = 66515
ELEMENT_SET_NO = 999
REV_AT_EPOCH   = 150
BSTAR          = .33497264E-3
MEAN_MOTION_DOT = .28971E-3
MEAN_MOTION_DDOT = 0

